MMS 3                   
1 40484U 15011C   24273.91667824 -.00001709  00000+0  00000+0 0  9995
2 40484  54.1657   4.4872 9002609 152.1038  42.6097  0.28452386  1301
